[{"OBJECT_NAME":"NOAA 18","OBJECT_ID":"2005-018A","EPOCH":"2026-03-23T11:37:42.916800","MEAN_MOTION":14.13713524,"ECCENTRICITY":0.001483,"INCLINATION":98.8138,"RA_OF_ASC_NODE":163.3974,"ARG_OF_PERICENTER":38.4417,"MEAN_ANOMALY":321.7809,"EPHEMERIS_TYPE":0,"CLASSIFICATION_TYPE":"U","NORAD_CAT_ID":28654,"ELEMENT_SET_NO":999,"REV_AT_EPOCH":7420,"BSTAR":5.8822e-5,"MEAN_MOTION_DOT":6.7e-7,"MEAN_MOTION_DDOT":0},{"OBJECT_NAME":"NOAA 19","OBJECT_ID":"2009-005A","EPOCH":"2026-03-23T11:14:09.085344","MEAN_MOTION":14.1345941,"ECCENTRICITY":0.0012683,"INCLINATION":98.9581,"RA_OF_ASC_NODE":153.2607,"ARG_OF_PERICENTER":272.7012,"MEAN_ANOMALY":87.2708,"EPHEMERIS_TYPE":0,"CLASSIFICATION_TYPE":"U","NORAD_CAT_ID":33591,"ELEMENT_SET_NO":999,"REV_AT_EPOCH":88237,"BSTAR":6.1241e-5,"MEAN_MOTION_DOT":7.0e-7,"MEAN_MOTION_DDOT":0},{"OBJECT_NAME":"SUOMI NPP","OBJECT_ID":"2011-061A","EPOCH":"2026-03-23T11:42:36.273312","MEAN_MOTION":14.19496915,"ECCENTRICITY":0.0001383,"INCLINATION":98.7885,"RA_OF_ASC_NODE":23.9822,"ARG_OF_PERICENTER":172.7182,"MEAN_ANOMALY":187.4015,"EPHEMERIS_TYPE":0,"CLASSIFICATION_TYPE":"U","NORAD_CAT_ID":37849,"ELEMENT_SET_NO":999,"REV_AT_EPOCH":74628,"BSTAR":6.5545e-5,"MEAN_MOTION_DOT":9.4e-7,"MEAN_MOTION_DDOT":0},{"OBJECT_NAME":"NOAA 20 (JPSS-1)","OBJECT_ID":"2017-073A","EPOCH":"2026-03-23T12:03:36.305856","MEAN_MOTION":14.19539529,"ECCENTRICITY":0.0001739,"INCLINATION":98.7707,"RA_OF_ASC_NODE":22.7536,"ARG_OF_PERICENTER":119.1698,"MEAN_ANOMALY":240.9652,"EPHEMERIS_TYPE":0,"CLASSIFICATION_TYPE":"U","NORAD_CAT_ID":43013,"ELEMENT_SET_NO":999,"REV_AT_EPOCH":43231,"BSTAR":6.5939e-5,"MEAN_MOTION_DOT":9.5e-7,"MEAN_MOTION_DDOT":0}]
