NOAA 18                 
1 28654U 05018A   26082.48452450  .00000067  00000+0  58822-4 0  9990
2 28654  98.8138 163.3974 0014830  38.4417 321.7809 14.13713524 74204
NOAA 19                 
1 33591U 09005A   26082.46816071  .00000070  00000+0  61241-4 0  9990
2 33591  98.9581 153.2607 0012683 272.7012  87.2708 14.13459410882370
SUOMI NPP               
1 37849U 11061A   26082.48791983  .00000094  00000+0  65545-4 0  9998
2 37849  98.7885  23.9822 0001383 172.7182 187.4015 14.19496915746289
NOAA 20 (JPSS-1)        
1 43013U 17073A   26082.50250354  .00000095  00000+0  65939-4 0  9990
2 43013  98.7707  22.7536 0001739 119.1698 240.9652 14.19539529432310
